CCSDS_OMM_VERS = 2.0
CREATION_DATE  = 
ORIGINATOR     = 

OBJECT_NAME    = TRANSPORTER-15 CM
OBJECT_ID      = 2025-276CM
CENTER_NAME    = EARTH
REF_FRAME      = TEME
TIME_SYSTEM    = UTC
MEAN_ELEMENT_THEORY = SGP/SGP4

EPOCH          = 2025-12-20T12:20:06.657216
MEAN_MOTION    = 15.17839756
ECCENTRICITY   = .00016596
INCLINATION    = 97.4410
RA_OF_ASC_NODE = 66.1522
ARG_OF_PERICENTER = 198.4606
MEAN_ANOMALY   = 161.6568

EPHEMERIS_TYPE = 0
CLASSIFICATION_TYPE = U
NORAD_CAT_ID   = 66749
ELEMENT_SET_NO = 999
REV_AT_EPOCH   = 330
BSTAR          = .26285983E-3
MEAN_MOTION_DOT = .5253E-4
MEAN_MOTION_DDOT = 0

CCSDS_OMM_VERS = 2.0
CREATION_DATE  = 
ORIGINATOR     = 

OBJECT_NAME    = TRANSPORTER-15 CN
OBJECT_ID      = 2025-276CN
CENTER_NAME    = EARTH
REF_FRAME      = TEME
TIME_SYSTEM    = UTC
MEAN_ELEMENT_THEORY = SGP/SGP4

EPOCH          = 2025-12-20T13:50:55.856832
MEAN_MOTION    = 15.18007801
ECCENTRICITY   = .00019237
INCLINATION    = 97.4448
RA_OF_ASC_NODE = 66.2347
ARG_OF_PERICENTER = 155.9304
MEAN_ANOMALY   = 204.2020

EPHEMERIS_TYPE = 0
CLASSIFICATION_TYPE = U
NORAD_CAT_ID   = 66750
ELEMENT_SET_NO = 999
REV_AT_EPOCH   = 331
BSTAR          = .28514193E-3
MEAN_MOTION_DOT = .5733E-4
MEAN_MOTION_DDOT = 0

CCSDS_OMM_VERS = 2.0
CREATION_DATE  = 
ORIGINATOR     = 

OBJECT_NAME    = ICEYE-X58
OBJECT_ID      = 2025-276CP
CENTER_NAME    = EARTH
REF_FRAME      = TEME
TIME_SYSTEM    = UTC
MEAN_ELEMENT_THEORY = SGP/SGP4

EPOCH          = 2025-12-20T12:20:27.360384
MEAN_MOTION    = 15.17783157
ECCENTRICITY   = .00021285
INCLINATION    = 97.4424
RA_OF_ASC_NODE = 66.1595
ARG_OF_PERICENTER = 216.5985
MEAN_ANOMALY   = 143.5103

EPHEMERIS_TYPE = 0
CLASSIFICATION_TYPE = U
NORAD_CAT_ID   = 66751
ELEMENT_SET_NO = 999
REV_AT_EPOCH   = 330
BSTAR          = .29273537E-3
MEAN_MOTION_DOT = .5849E-4
MEAN_MOTION_DDOT = 0

CCSDS_OMM_VERS = 2.0
CREATION_DATE  = 
ORIGINATOR     = 

OBJECT_NAME    = ICEYE-X59
OBJECT_ID      = 2025-276CQ
CENTER_NAME    = EARTH
REF_FRAME      = TEME
TIME_SYSTEM    = UTC
MEAN_ELEMENT_THEORY = SGP/SGP4

EPOCH          = 2025-12-20T13:59:20.586624
MEAN_MOTION    = 15.17584646
ECCENTRICITY   = .00017277
INCLINATION    = 97.4417
RA_OF_ASC_NODE = 66.2207
ARG_OF_PERICENTER = 250.5795
MEAN_ANOMALY   = 109.5252

EPHEMERIS_TYPE = 0
CLASSIFICATION_TYPE = U
NORAD_CAT_ID   = 66752
ELEMENT_SET_NO = 999
REV_AT_EPOCH   = 331
BSTAR          = .2855068E-3
MEAN_MOTION_DOT = .567E-4
MEAN_MOTION_DDOT = 0

CCSDS_OMM_VERS = 2.0
CREATION_DATE  = 
ORIGINATOR     = 

OBJECT_NAME    = ICEYE-X60
OBJECT_ID      = 2025-276CR
CENTER_NAME    = EARTH
REF_FRAME      = TEME
TIME_SYSTEM    = UTC
MEAN_ELEMENT_THEORY = SGP/SGP4

EPOCH          = 2025-12-20T10:54:20.196288
MEAN_MOTION    = 15.17362922
ECCENTRICITY   = .00010598
INCLINATION    = 97.4416
RA_OF_ASC_NODE = 66.0830
ARG_OF_PERICENTER = 299.2019
MEAN_ANOMALY   = 60.9108

EPHEMERIS_TYPE = 0
CLASSIFICATION_TYPE = U
NORAD_CAT_ID   = 66753
ELEMENT_SET_NO = 999
REV_AT_EPOCH   = 329
BSTAR          = .2819837E-3
MEAN_MOTION_DOT = .5564E-4
MEAN_MOTION_DDOT = 0

CCSDS_OMM_VERS = 2.0
CREATION_DATE  = 
ORIGINATOR     = 

OBJECT_NAME    = ICEYE-X61
OBJECT_ID      = 2025-276CS
CENTER_NAME    = EARTH
REF_FRAME      = TEME
TIME_SYSTEM    = UTC
MEAN_ELEMENT_THEORY = SGP/SGP4

EPOCH          = 2025-12-20T13:54:14.227776
MEAN_MOTION    = 15.17828657
ECCENTRICITY   = .00020138
INCLINATION    = 97.4417
RA_OF_ASC_NODE = 66.2207
ARG_OF_PERICENTER = 202.9833
MEAN_ANOMALY   = 157.1312

EPHEMERIS_TYPE = 0
CLASSIFICATION_TYPE = U
NORAD_CAT_ID   = 66754
ELEMENT_SET_NO = 999
REV_AT_EPOCH   = 331
BSTAR          = .24233849E-3
MEAN_MOTION_DOT = .4836E-4
MEAN_MOTION_DDOT = 0

CCSDS_OMM_VERS = 2.0
CREATION_DATE  = 
ORIGINATOR     = 

OBJECT_NAME    = ICEYE-X62
OBJECT_ID      = 2025-276CT
CENTER_NAME    = EARTH
REF_FRAME      = TEME
TIME_SYSTEM    = UTC
MEAN_ELEMENT_THEORY = SGP/SGP4

EPOCH          = 2025-12-20T13:59:46.650912
MEAN_MOTION    = 15.17602133
ECCENTRICITY   = .00007827
INCLINATION    = 97.4418
RA_OF_ASC_NODE = 66.2147
ARG_OF_PERICENTER = 250.0107
MEAN_ANOMALY   = 110.1042

EPHEMERIS_TYPE = 0
CLASSIFICATION_TYPE = U
NORAD_CAT_ID   = 66755
ELEMENT_SET_NO = 999
REV_AT_EPOCH   = 331
BSTAR          = .22249173E-3
MEAN_MOTION_DOT = .4406E-4
MEAN_MOTION_DDOT = 0

CCSDS_OMM_VERS = 2.0
CREATION_DATE  = 
ORIGINATOR     = 

OBJECT_NAME    = TRANSPORTER-15 CU
OBJECT_ID      = 2025-276CU
CENTER_NAME    = EARTH
REF_FRAME      = TEME
TIME_SYSTEM    = UTC
MEAN_ELEMENT_THEORY = SGP/SGP4

EPOCH          = 2025-12-20T05:58:16.243968
MEAN_MOTION    = 15.17916489
ECCENTRICITY   = .00013142
INCLINATION    = 97.4426
RA_OF_ASC_NODE = 65.9014
ARG_OF_PERICENTER = 162.1346
MEAN_ANOMALY   = 197.9934

EPHEMERIS_TYPE = 0
CLASSIFICATION_TYPE = U
NORAD_CAT_ID   = 66756
ELEMENT_SET_NO = 999
REV_AT_EPOCH   = 326
BSTAR          = .28606413E-3
MEAN_MOTION_DOT = .5736E-4
MEAN_MOTION_DDOT = 0

CCSDS_OMM_VERS = 2.0
CREATION_DATE  = 
ORIGINATOR     = 

OBJECT_NAME    = TRANSPORTER-15 CV
OBJECT_ID      = 2025-276CV
CENTER_NAME    = EARTH
REF_FRAME      = TEME
TIME_SYSTEM    = UTC
MEAN_ELEMENT_THEORY = SGP/SGP4

EPOCH          = 2025-12-20T10:41:19.191264
MEAN_MOTION    = 15.18030642
ECCENTRICITY   = .00014949
INCLINATION    = 97.4433
RA_OF_ASC_NODE = 66.1001
ARG_OF_PERICENTER = 161.5954
MEAN_ANOMALY   = 198.5334

EPHEMERIS_TYPE = 0
CLASSIFICATION_TYPE = U
NORAD_CAT_ID   = 66757
ELEMENT_SET_NO = 999
REV_AT_EPOCH   = 329
BSTAR          = .25851332E-3
MEAN_MOTION_DOT = .5194E-4
MEAN_MOTION_DDOT = 0

CCSDS_OMM_VERS = 2.0
CREATION_DATE  = 
ORIGINATOR     = 

OBJECT_NAME    = TRANSPORTER-15 CW
OBJECT_ID      = 2025-276CW
CENTER_NAME    = EARTH
REF_FRAME      = TEME
TIME_SYSTEM    = UTC
MEAN_ELEMENT_THEORY = SGP/SGP4

EPOCH          = 2025-12-20T05:56:11.041728
MEAN_MOTION    = 15.18039849
ECCENTRICITY   = .00012303
INCLINATION    = 97.4406
RA_OF_ASC_NODE = 65.8976
ARG_OF_PERICENTER = 137.0834
MEAN_ANOMALY   = 223.0497

EPHEMERIS_TYPE = 0
CLASSIFICATION_TYPE = U
NORAD_CAT_ID   = 66758
ELEMENT_SET_NO = 999
REV_AT_EPOCH   = 326
BSTAR          = .33106E-3
MEAN_MOTION_DOT = .6673E-4
MEAN_MOTION_DDOT = 0

CCSDS_OMM_VERS = 2.0
CREATION_DATE  = 
ORIGINATOR     = 

OBJECT_NAME    = TRANSPORTER-15 CX
OBJECT_ID      = 2025-276CX
CENTER_NAME    = EARTH
REF_FRAME      = TEME
TIME_SYSTEM    = UTC
MEAN_ELEMENT_THEORY = SGP/SGP4

EPOCH          = 2025-12-19T14:05:02.213952
MEAN_MOTION    = 15.18161392
ECCENTRICITY   = .0001493
INCLINATION    = 97.4394
RA_OF_ASC_NODE = 65.2472
ARG_OF_PERICENTER = 144.8645
MEAN_ANOMALY   = 215.2688

EPHEMERIS_TYPE = 0
CLASSIFICATION_TYPE = U
NORAD_CAT_ID   = 66759
ELEMENT_SET_NO = 999
REV_AT_EPOCH   = 316
BSTAR          = .2502E-3
MEAN_MOTION_DOT = .5044E-4
MEAN_MOTION_DDOT = 0

CCSDS_OMM_VERS = 2.0
CREATION_DATE  = 
ORIGINATOR     = 

OBJECT_NAME    = TRANSPORTER-15 CY
OBJECT_ID      = 2025-276CY
CENTER_NAME    = EARTH
REF_FRAME      = TEME
TIME_SYSTEM    = UTC
MEAN_ELEMENT_THEORY = SGP/SGP4

EPOCH          = 2025-12-20T10:38:18.216096
MEAN_MOTION    = 15.18161231
ECCENTRICITY   = .00016546
INCLINATION    = 97.4412
RA_OF_ASC_NODE = 66.0960
ARG_OF_PERICENTER = 111.8725
MEAN_ANOMALY   = 248.2685

EPHEMERIS_TYPE = 0
CLASSIFICATION_TYPE = U
NORAD_CAT_ID   = 66760
ELEMENT_SET_NO = 999
REV_AT_EPOCH   = 329
BSTAR          = .33507391E-3
MEAN_MOTION_DOT = .6779E-4
MEAN_MOTION_DDOT = 0

CCSDS_OMM_VERS = 2.0
CREATION_DATE  = 
ORIGINATOR     = 

OBJECT_NAME    = TRANSPORTER-15 CZ
OBJECT_ID      = 2025-276CZ
CENTER_NAME    = EARTH
REF_FRAME      = TEME
TIME_SYSTEM    = UTC
MEAN_ELEMENT_THEORY = SGP/SGP4

EPOCH          = 2025-12-20T02:40:49.176192
MEAN_MOTION    = 15.18415140
ECCENTRICITY   = .00014913
INCLINATION    = 97.4407
RA_OF_ASC_NODE = 65.7740
ARG_OF_PERICENTER = 126.7583
MEAN_ANOMALY   = 233.3788

EPHEMERIS_TYPE = 0
CLASSIFICATION_TYPE = U
NORAD_CAT_ID   = 66761
ELEMENT_SET_NO = 999
REV_AT_EPOCH   = 324
BSTAR          = .36289085E-3
MEAN_MOTION_DOT = .7402E-4
MEAN_MOTION_DDOT = 0

CCSDS_OMM_VERS = 2.0
CREATION_DATE  = 
ORIGINATOR     = 

OBJECT_NAME    = HYDROGNSS-1
OBJECT_ID      = 2025-276DA
CENTER_NAME    = EARTH
REF_FRAME      = TEME
TIME_SYSTEM    = UTC
MEAN_ELEMENT_THEORY = SGP/SGP4

EPOCH          = 2025-12-20T04:35:32.950176
MEAN_MOTION    = 15.17137750
ECCENTRICITY   = .00025207
INCLINATION    = 97.4418
RA_OF_ASC_NODE = 65.8233
ARG_OF_PERICENTER = 306.2069
MEAN_ANOMALY   = 53.8931

EPHEMERIS_TYPE = 0
CLASSIFICATION_TYPE = U
NORAD_CAT_ID   = 66762
ELEMENT_SET_NO = 999
REV_AT_EPOCH   = 325
BSTAR          = -.31238765E-2
MEAN_MOTION_DOT = -.6147E-3
MEAN_MOTION_DDOT = 0

CCSDS_OMM_VERS = 2.0
CREATION_DATE  = 
ORIGINATOR     = 

OBJECT_NAME    = HYDROGNSS-2
OBJECT_ID      = 2025-276DB
CENTER_NAME    = EARTH
REF_FRAME      = TEME
TIME_SYSTEM    = UTC
MEAN_ELEMENT_THEORY = SGP/SGP4

EPOCH          = 2025-12-20T04:32:57.777504
MEAN_MOTION    = 15.17256655
ECCENTRICITY   = .00010994
INCLINATION    = 97.4430
RA_OF_ASC_NODE = 65.8296
ARG_OF_PERICENTER = 138.4182
MEAN_ANOMALY   = 221.7136

EPHEMERIS_TYPE = 0
CLASSIFICATION_TYPE = U
NORAD_CAT_ID   = 66763
ELEMENT_SET_NO = 999
REV_AT_EPOCH   = 325
BSTAR          = -.41962283E-2
MEAN_MOTION_DOT = -.82583E-3
MEAN_MOTION_DDOT = 0

